COSMOS 2425 (716)       
1 29670U 06062A   21279.70223464  .00000033  00000-0  00000-0 0  9993
2 29670  64.8185 251.6897 0024298 340.8369 201.9161  2.13115181115048
COSMOS 2433 (720)       
1 32275U 07052A   21280.16028922 -.00000056  00000-0  00000+0 0  9997
2 32275  66.0752  13.0782 0003699 211.8517 130.7457  2.13104304108565
COSMOS 2432 (719)       
1 32276U 07052B   21279.64507814 -.00000056  00000-0  00000-0 0  9992
2 32276  66.0881  13.1919 0007896 323.5875 292.7477  2.13103512108553
COSMOS 2434 (721)       
1 32393U 07065A   21279.72515594  .00000032  00000-0  00000-0 0  9992
2 32393  64.4368 250.0969 0000471 153.1316 104.3569  2.13103096107265
COSMOS 2436 (723)       
1 32395U 07065C   21279.22463247  .00000031  00000-0  00000-0 0  9995
2 32395  64.4460 250.1683 0014695 350.2153  19.3305  2.13102929107195
COSMOS 2456 (730)       
1 36111U 09070A   21279.47752112  .00000086  00000-0  00000-0 0  9992
2 36111  64.2934 129.7735 0002488 340.6261 255.9821  2.13099352 91927
COSMOS 2457 (733)       
1 36112U 09070B   21279.90127304  .00000083  00000-0  00000+0 0  9996
2 36112  64.2775 129.6409 0005952 151.9633 174.9968  2.13101509 91934
COSMOS 2459 (731)       
1 36400U 10007A   21279.78436045 -.00000056  00000-0  00000-0 0  9991
2 36400  65.9701  12.0001 0024741 349.1460 284.3380  2.13108880 90279
COSMOS 2461 (735)       
1 36401U 10007B   21279.78466140 -.00000056  00000-0  00000+0 0  9990
2 36401  65.9650  11.9644 0017987   9.1055 263.0789  2.13103657 90286
COSMOS 2460 (732)       
1 36402U 10007C   21279.85422707 -.00000056  00000-0  00000-0 0  9991
2 36402  65.9521  11.9168 0001894 164.6415 106.8512  2.13106569 90285
COSMOS 2464 (736)       
1 37139U 10041C   21279.74602897  .00000031  00000-0  00000-0 0  9997
2 37139  64.0364 249.2976 0027226   5.3254 128.2647  2.13100731 86344
COSMOS 2471 (701K)      
1 37372U 11009A   21279.71566025 -.00000056  00000-0  00000-0 0  9998
2 37372  65.9455  11.8503 0016632 226.3045  70.1944  2.13062361 82555
COSMOS 2476 (744)       
1 37867U 11064A   21279.46875030  .00000087  00000-0  00000-0 0  9992
2 37867  64.5878 131.0305 0019622 232.8791 260.2787  2.13101894 77270
COSMOS 2477 (745)       
1 37868U 11064B   21279.76646572  .00000085  00000-0  00000-0 0  9991
2 37868  64.5952 131.0829 0017079 233.8011 306.0294  2.13101758 77232
COSMOS 2475 (743)       
1 37869U 11064C   21280.25985553  .00000081  00000-0  00000+0 0  9998
2 37869  64.6017 131.0721 0020644 254.9660 261.1989  2.13102139 77251
COSMOS 2485 (747)       
1 39155U 13019A   21279.48521712  .00000087  00000-0  00000-0 0  9993
2 39155  64.7516 131.4031 0020313 228.2851 321.9793  2.13102030 65742
COSMOS 2492 (754)       
1 39620U 14012A   21279.98937470 -.00000056  00000-0  00000+0 0  9997
2 39620  65.8398  11.6284 0011088 319.3472 292.3700  2.13103245 58704
COSMOS 2500 (755)       
1 40001U 14032A   21279.81037984 -.00000057  00000-0  00000+0 0  9998
2 40001  65.7798  11.5153 0008078 194.8117 138.9384  2.13102462 56917
COSMOS 2501 (702K)      
1 40315U 14075A   21280.21500037  .00000032  00000-0  00000+0 0  9995
2 40315  63.7465 250.0468 0018647 213.8138 237.1793  2.13101400 53331
COSMOS 2514 (751)       
1 41330U 16008A   21280.21971330 -.00000057  00000-0  00000+0 0  9997
2 41330  65.5810  11.2565 0011498 206.2287 264.8952  2.13102889 44095
COSMOS 2516 (753)       
1 41554U 16032A   21279.59394506  .00000031  00000-0  00000-0 0  9997
2 41554  63.9722 250.2734 0015366 222.7399  26.0245  2.13107258 41685
COSMOS 2522 (752)       
1 42939U 17055A   21279.72803667  .00000032  00000-0  00000-0 0  9990
2 42939  64.2051 250.5879 0009973 247.9473 324.5917  2.13102006 31445
COSMOS 2527 (756)       
1 43508U 18053A   21279.46936144  .00000087  00000-0  00000-0 0  9990
2 43508  64.9164 131.3510 0006807 219.7197 186.4979  2.13102590 25737
COSMOS 2529 (757)       
1 43687U 18086A   21280.13325021  .00000033  00000-0  00000+0 0  9996
2 43687  64.4199 250.8230 0012114 266.8668 212.1020  2.13102141 22764
COSMOS 2534 (758)       
1 44299U 19030A   21280.13221657  .00000033  00000-0  00000+0 0  9996
2 44299  64.4904 250.6842 0014629 284.0073 328.9324  2.13101933 18407
COSMOS 2544 (759)       
1 44850U 19088A   21279.78406134  .00000085  00000-0  00000-0 0  9994
2 44850  64.9010 131.1979 0010305 257.8721  73.4287  2.13102292 14160
COSMOS 2545 (760)       
1 45358U 20018A   21279.91253017 -.00000058  00000-0  00000-0 0  9999
2 45358  64.9156  12.0831 0009405 236.2527  43.4755  2.13102742 12124
